[{"OBJECT_NAME":"STARLINK-30111","OBJECT_ID":"2023-056S","EPOCH":"2026-03-09T22:00:01.999584","MEAN_MOTION":15.26728567,"ECCENTRICITY":0.00015825,"INCLINATION":42.9995,"RA_OF_ASC_NODE":207.0959,"ARG_OF_PERICENTER":287.005,"MEAN_ANOMALY":306.6901,"EPHEMERIS_TYPE":0,"CLASSIFICATION_TYPE":"U","NORAD_CAT_ID":56302,"ELEMENT_SET_NO":999,"REV_AT_EPOCH":578,"BSTAR":0.0014917181,"MEAN_MOTION_DOT":0.00039957,"MEAN_MOTION_DDOT":0},{"OBJECT_NAME":"OBJECT B","OBJECT_ID":"2026-023B","EPOCH":"2026-03-09T17:17:10.012128","MEAN_MOTION":15.23001134,"ECCENTRICITY":0.00195537,"INCLINATION":96.6353,"RA_OF_ASC_NODE":141.6642,"ARG_OF_PERICENTER":132.0881,"MEAN_ANOMALY":228.2024,"EPHEMERIS_TYPE":0,"CLASSIFICATION_TYPE":"U","NORAD_CAT_ID":67675,"ELEMENT_SET_NO":999,"REV_AT_EPOCH":486,"BSTAR":0.00052794729,"MEAN_MOTION_DOT":0.0001243,"MEAN_MOTION_DDOT":0}]
